{"fetched_at":"2026-07-06T18:35:21.846Z","source":"https://celestrak.org/NORAD/elements/gp.php?GROUP=stations&FORMAT=JSON","constellation":"tiangong","records":[{"OBJECT_NAME":"CSS (TIANHE)","OBJECT_ID":"2021-035A","EPOCH":"2026-07-06T07:19:16.408992","CLASSIFICATION_TYPE":"U","MEAN_MOTION":15.58006739,"ECCENTRICITY":0.00029355,"INCLINATION":41.4676,"RA_OF_ASC_NODE":205.7143,"ARG_OF_PERICENTER":272.6042,"MEAN_ANOMALY":87.446,"EPHEMERIS_TYPE":0,"NORAD_CAT_ID":48274,"ELEMENT_SET_NO":999,"REV_AT_EPOCH":29615,"BSTAR":0.00017387936,"MEAN_MOTION_DOT":0.00013102,"MEAN_MOTION_DDOT":0}]}
